{"type": "FeatureCollection", "features": [ {"type": "Feature", "properties": {"norad_id": 34432, "name": "COSMOS 2251 DEB", "group": "cosmos-2251-debris", "lat": 65.84209162594857, "lon": 160.76441478092636, "alt_km": 966.3198059558235, "timestamp": "2025-12-02T10:50:47.669981+00:00", "meta": {"OBJECT_NAME": "COSMOS 2251 DEB", "OBJECT_ID": "1993-036RZ", "EPOCH": "2025-11-30T19:28:12.273024", "MEAN_MOTION": 14.02822542, "ECCENTRICITY": 0.01832945, "INCLINATION": 73.827, "RA_OF_ASC_NODE": 123.3387, "ARG_OF_PERICENTER": 207.8109, "MEAN_ANOMALY": 223.0223, "EPHEMERIS_TYPE": 0, "CLASSIFICATION_TYPE": "U", "NORAD_CAT_ID": 34432, "ELEMENT_SET_NO": 999, "REV_AT_EPOCH": 85517, "BSTAR": 0.00099665905, "MEAN_MOTION_DOT": 1.763e-05, "MEAN_MOTION_DDOT": 0}, "tle": {"line1": "1 34432U 93036RZ  25334.81125316  .00001763  00000+0  99666-3 0  9996", "line2": "2 34432  73.8270 123.3387 0183294 207.8109 223.0223 14.02822542855176"}}, "geometry": {"type": "Point", "coordinates": [160.76441478092636, 65.84209162594857]}}, {"type": "Feature", "properties": {"norad_id": 34433, "name": "COSMOS 2251 DEB", "group": "cosmos-2251-debris", "lat": 73.96855094492757, "lon": -93.09287413711131, "alt_km": 922.5828930154348, "timestamp": "2025-12-02T10:50:47.669991+00:00", "meta": {"OBJECT_NAME": "COSMOS 2251 DEB", "OBJECT_ID": "1993-036SA", "EPOCH": "2025-12-02T00:13:13.494144", "MEAN_MOTION": 14.12772315, "ECCENTRICITY": 0.0151692, "INCLINATION": 74.0107, "RA_OF_ASC_NODE": 173.942, "ARG_OF_PERICENTER": 314.3942, "MEAN_ANOMALY": 44.4856, "EPHEMERIS_TYPE": 0, "CLASSIFICATION_TYPE": "U", "NORAD_CAT_ID": 34433, "ELEMENT_SET_NO": 999, "REV_AT_EPOCH": 85798, "BSTAR": 0.0015741, "MEAN_MOTION_DOT": 3.235e-05, "MEAN_MOTION_DDOT": 0}, "tle": {"line1": "1 34433U 93036SA  25336.00918396  .00003235  00000+0  15741-2 0  9995", "line2": "2 34433  74.0107 173.9420 0151692 314.3942  44.4856 14.12772315857985"}}, "geometry": {"type": "Point", "coordinates": [-93.09287413711131, 73.96855094492757]}}, {"type": "Feature", "properties": {"norad_id": 34434, "name": "COSMOS 2251 DEB", "group": "cosmos-2251-debris", "lat": 63.55890858178822, "lon": 172.55347584156843, "alt_km": 806.1145379193113, "timestamp": "2025-12-02T10:50:47.670001+00:00", "meta": {"OBJECT_NAME": "COSMOS 2251 DEB", "OBJECT_ID": "1993-036SB", "EPOCH": "2025-12-02T03:33:41.074848", "MEAN_MOTION": 13.89676707, "ECCENTRICITY": 0.0276624, "INCLINATION": 74.0641, "RA_OF_ASC_NODE": 28.136, "ARG_OF_PERICENTER": 167.8377, "MEAN_ANOMALY": 228.0748, "EPHEMERIS_TYPE": 0, "CLASSIFICATION_TYPE": "U", "NORAD_CAT_ID": 34434, "ELEMENT_SET_NO": 999, "REV_AT_EPOCH": 83819, "BSTAR": 0.0033362, "MEAN_MOTION_DOT": 5.545e-05, "MEAN_MOTION_DDOT": 0}, "tle": {"line1": "1 34434U 93036SB  25336.14839207  .00005545  00000+0  33362-2 0  9999", "line2": "2 34434  74.0641  28.1360 0276624 167.8377 228.0748 13.89676707838192"}}, "geometry": {"type": "Point", "coordinates": [172.55347584156843, 63.55890858178822]}}, {"type": "Feature", "properties": {"norad_id": 34446, "name": "COSMOS 2251 DEB", "group": "cosmos-2251-debris", "lat": -68.72132666396242, "lon": -56.14382012986224, "alt_km": 706.103760538238, "timestamp": "2025-12-02T10:50:47.670012+00:00", "meta": {"OBJECT_NAME": "COSMOS 2251 DEB", "OBJECT_ID": "1993-036SP", "EPOCH": "2025-12-02T01:23:14.486784", "MEAN_MOTION": 14.49330548, "ECCENTRICITY": 0.0051622, "INCLINATION": 74.0422, "RA_OF_ASC_NODE": 77.3124, "ARG_OF_PERICENTER": 217.6994, "MEAN_ANOMALY": 142.0545, "EPHEMERIS_TYPE": 0, "CLASSIFICATION_TYPE": "U", "NORAD_CAT_ID": 34446, "ELEMENT_SET_NO": 999, "REV_AT_EPOCH": 88539, "BSTAR": 0.00020384, "MEAN_MOTION_DOT": 7.63e-06, "MEAN_MOTION_DDOT": 0}, "tle": {"line1": "1 34446U 93036SP  25336.05780656  .00000763  00000+0  20384-3 0  9993", "line2": "2 34446  74.0422  77.3124 0051622 217.6994 142.0545 14.49330548885395"}}, "geometry": {"type": "Point", "coordinates": [-56.14382012986224, -68.72132666396242]}}, {"type": "Feature", "properties": {"norad_id": 34449, "name": "COSMOS 2251 DEB", "group": "cosmos-2251-debris", "lat": 3.111851617447652, "lon": -89.60259518039742, "alt_km": 574.0179318753508, "timestamp": "2025-12-02T10:50:47.670022+00:00", "meta": {"OBJECT_NAME": "COSMOS 2251 DEB", "OBJECT_ID": "1993-036SS", "EPOCH": "2025-12-01T10:14:30.724800", "MEAN_MOTION": 14.93704956, "ECCENTRICITY": 0.00253125, "INCLINATION": 74.031, "RA_OF_ASC_NODE": 93.3525, "ARG_OF_PERICENTER": 143.3895, "MEAN_ANOMALY": 282.4195, "EPHEMERIS_TYPE": 0, "CLASSIFICATION_TYPE": "U", "NORAD_CAT_ID": 34449, "ELEMENT_SET_NO": 999, "REV_AT_EPOCH": 88524, "BSTAR": 0.004410154, "MEAN_MOTION_DOT": 0.00047248, "MEAN_MOTION_DDOT": 0}, "tle": {"line1": "1 34449U 93036SS  25335.42674450  .00047248  00000+0  44102-2 0  9992", "line2": "2 34449  74.0310  93.3525 0025312 143.3895 282.4195 14.93704956885240"}}, "geometry": {"type": "Point", "coordinates": [-89.60259518039742, 3.111851617447652]}}, {"type": "Feature", "properties": {"norad_id": 34451, "name": "COSMOS 2251 DEB", "group": "cosmos-2251-debris", "lat": 54.91276229432173, "lon": -95.42763556772279, "alt_km": 560.6658519797465, "timestamp": "2025-12-02T10:50:47.670032+00:00", "meta": {"OBJECT_NAME": "COSMOS 2251 DEB", "OBJECT_ID": "1993-036SU", "EPOCH": "2025-12-01T10:12:21.575808", "MEAN_MOTION": 14.94430913, "ECCENTRICITY": 0.00261559, "INCLINATION": 74.0447, "RA_OF_ASC_NODE": 110.6723, "ARG_OF_PERICENTER": 138.0898, "MEAN_ANOMALY": 222.2295, "EPHEMERIS_TYPE": 0, "CLASSIFICATION_TYPE": "U", "NORAD_CAT_ID": 34451, "ELEMENT_SET_NO": 999, "REV_AT_EPOCH": 88466, "BSTAR": 0.0039254873, "MEAN_MOTION_DOT": 0.00042825, "MEAN_MOTION_DDOT": 0}, "tle": {"line1": "1 34451U 93036SU  25335.42524972  .00042825  00000+0  39255-2 0  9997", "line2": "2 34451  74.0447 110.6723 0026155 138.0898 222.2295 14.94430913884665"}}, "geometry": {"type": "Point", "coordinates": [-95.42763556772279, 54.91276229432173]}}, {"type": "Feature", "properties": {"norad_id": 34452, "name": "COSMOS 2251 DEB", "group": "cosmos-2251-debris", "lat": -33.271935533346436, "lon": -166.7237389248153, "alt_km": 503.86150259991064, "timestamp": "2025-12-02T10:50:47.670043+00:00", "meta": {"OBJECT_NAME": "COSMOS 2251 DEB", "OBJECT_ID": "1993-036SV", "EPOCH": "2025-12-02T02:08:14.097984", "MEAN_MOTION": 15.11237153, "ECCENTRICITY": 0.006742, "INCLINATION": 74.0357, "RA_OF_ASC_NODE": 204.8534, "ARG_OF_PERICENTER": 283.4446, "MEAN_ANOMALY": 227.9055, "EPHEMERIS_TYPE": 0, "CLASSIFICATION_TYPE": "U", "NORAD_CAT_ID": 34452, "ELEMENT_SET_NO": 999, "REV_AT_EPOCH": 90501, "BSTAR": 0.00092793, "MEAN_MOTION_DOT": 0.00016471, "MEAN_MOTION_DDOT": 0}, "tle": {"line1": "1 34452U 93036SV  25336.08905206  .00016471  00000+0  92793-3 0  9999", "line2": "2 34452  74.0357 204.8534 0067420 283.4446 227.9055 15.11237153905016"}}, "geometry": {"type": "Point", "coordinates": [-166.7237389248153, -33.271935533346436]}}, {"type": "Feature", "properties": {"norad_id": 34453, "name": "COSMOS 2251 DEB", "group": "cosmos-2251-debris", "lat": -57.764005790576014, "lon": -30.865701356249904, "alt_km": 410.7303784747246, "timestamp": "2025-12-02T10:50:47.670053+00:00", "meta": {"OBJECT_NAME": "COSMOS 2251 DEB", "OBJECT_ID": "1993-036SW", "EPOCH": "2025-12-02T03:38:12.249024", "MEAN_MOTION": 15.55399632, "ECCENTRICITY": 0.0016853, "INCLINATION": 74.1185, "RA_OF_ASC_NODE": 122.9561, "ARG_OF_PERICENTER": 354.2986, "MEAN_ANOMALY": 5.8035, "EPHEMERIS_TYPE": 0, "CLASSIFICATION_TYPE": "U", "NORAD_CAT_ID": 34453, "ELEMENT_SET_NO": 999, "REV_AT_EPOCH": 88701, "BSTAR": 0.0099765, "MEAN_MOTION_DOT": 0.0074933, "MEAN_MOTION_DDOT": 0}, "tle": {"line1": "1 34453U 93036SW  25336.15153066  .00749330  00000+0  99765-2 0  9999", "line2": "2 34453  74.1185 122.9561 0016853 354.2986   5.8035 15.55399632887016"}}, "geometry": {"type": "Point", "coordinates": [-30.865701356249904, -57.764005790576014]}}, {"type": "Feature", "properties": {"norad_id": 34454, "name": "COSMOS 2251 DEB", "group": "cosmos-2251-debris", "lat": 11.370138201177541, "lon": 113.28880144332004, "alt_km": 787.9768441510059, "timestamp": "2025-12-02T10:50:47.670063+00:00", "meta": {"OBJECT_NAME": "COSMOS 2251 DEB", "OBJECT_ID": "1993-036SX", "EPOCH": "2025-12-02T03:23:36.811392", "MEAN_MOTION": 14.38777645, "ECCENTRICITY": 0.003514, "INCLINATION": 74.0585, "RA_OF_ASC_NODE": 297.1555, "ARG_OF_PERICENTER": 2.0172, "MEAN_ANOMALY": 358.1117, "EPHEMERIS_TYPE": 0, "CLASSIFICATION_TYPE": "U", "NORAD_CAT_ID": 34454, "ELEMENT_SET_NO": 999, "REV_AT_EPOCH": 87915, "BSTAR": 0.00032614, "MEAN_MOTION_DOT": 9.83e-06, "MEAN_MOTION_DDOT": 0}, "tle": {"line1": "1 34454U 93036SX  25336.14139828  .00000983  00000+0  32614-3 0  9994", "line2": "2 34454  74.0585 297.1555 0035140   2.0172 358.1117 14.38777645879158"}}, "geometry": {"type": "Point", "coordinates": [113.28880144332004, 11.370138201177541]}}, {"type": "Feature", "properties": {"norad_id": 34459, "name": "COSMOS 2251 DEB", "group": "cosmos-2251-debris", "lat": 33.87961045977075, "lon": 80.78039052737321, "alt_km": 1020.8718330979636, "timestamp": "2025-12-02T10:50:47.670074+00:00", "meta": {"OBJECT_NAME": "COSMOS 2251 DEB", "OBJECT_ID": "1993-036TC", "EPOCH": "2025-12-01T20:26:41.410752", "MEAN_MOTION": 14.00463848, "ECCENTRICITY": 0.0191841, "INCLINATION": 74.0791, "RA_OF_ASC_NODE": 272.8664, "ARG_OF_PERICENTER": 345.1217, "MEAN_ANOMALY": 14.4317, "EPHEMERIS_TYPE": 0, "CLASSIFICATION_TYPE": "U", "NORAD_CAT_ID": 34459, "ELEMENT_SET_NO": 999, "REV_AT_EPOCH": 85559, "BSTAR": 0.00064506, "MEAN_MOTION_DOT": 1.098e-05, "MEAN_MOTION_DDOT": 0}, "tle": {"line1": "1 34459U 93036TC  25335.85186818  .00001098  00000+0  64506-3 0  9990", "line2": "2 34459  74.0791 272.8664 0191841 345.1217  14.4317 14.00463848855597"}}, "geometry": {"type": "Point", "coordinates": [80.78039052737321, 33.87961045977075]}}]}